OBJECT B                
1 51825U 22019B   24358.78873651  .00022631  00000+0  75438-3 0  9995
2 51825  97.4087  68.7057 0010787 291.5897  68.4194 15.31047020156147
